IRIDIUM 112             
1 41925U 17003J   25323.82799537  .00000329  00000+0  11058-3 0  9998
2 41925  86.3996 175.7791 0002146  82.6298 277.5142 14.34216003463262
IRIDIUM 111             
1 41926U 17003K   25323.32692612  .00000286  00000+0  95228-4 0  9994
2 41926  86.4000 176.0540 0001976  85.3418 274.8004 14.34213989463177
IRIDIUM 113             
1 42803U 17039A   25323.65572615  .00000194  00000+0  62354-4 0  9996
2 42803  86.3992  49.7423 0002067  91.4963 268.6470 14.34214427441152
IRIDIUM 123             
1 42804U 17039B   25323.76698476  .00000351  00000+0  11814-3 0  9992
2 42804  86.3959  81.1825 0001650  95.3289 264.8095 14.34215301439939
IRIDIUM 120             
1 42805U 17039C   25323.71916477  .00000355  00000+0  11957-3 0  9994
2 42805  86.3979  49.5253 0002078 106.2753 253.8671 14.34214753441153
IRIDIUM 115             
1 42806U 17039D   25323.67012153  .00000526  00000+0  15041-3 0  9996
2 42806  86.4520  49.6459 0001658 106.4808 253.6575 14.43277016444045
IRIDIUM 118             
1 42807U 17039E   25323.79870102  .00000356  00000+0  11997-3 0  9993
2 42807  86.3958  81.1681 0001993  89.5331 270.6093 14.34213127439931
IRIDIUM 117             
1 42808U 17039F   25323.74795736  .00000373  00000+0  12605-3 0  9994
2 42808  86.3957  81.1489 0001803  93.1622 266.9780 14.34215307439956
